[Satellite]
VERSION=1.1
NAME=SL-16 R/B
NICKNAME=SL-16 R/B
TLE1=1 17590U 87027B   18020.52481392 -.00000113  00000-0 -32642-4 0  9999
TLE2=2 17590  71.0030  52.3143 0006634 312.7756  47.2809 14.16755088594679
